[{"OBJECT_NAME":"STARLINK-31002","OBJECT_ID":"2023-186Y","EPOCH":"2026-03-09T00:54:12.084768","MEAN_MOTION":15.27578882,"ECCENTRICITY":4.64e-5,"INCLINATION":43.0003,"RA_OF_ASC_NODE":67.5594,"ARG_OF_PERICENTER":274.1731,"MEAN_ANOMALY":85.9067,"EPHEMERIS_TYPE":0,"CLASSIFICATION_TYPE":"U","NORAD_CAT_ID":58495,"ELEMENT_SET_NO":999,"REV_AT_EPOCH":12595,"BSTAR":0.00010562756,"MEAN_MOTION_DOT":2.646e-5,"MEAN_MOTION_DDOT":0},{"OBJECT_NAME":"VSP ROSE","OBJECT_ID":"2024-043AC","EPOCH":"2026-03-09T21:48:06.922944","MEAN_MOTION":15.27746075,"ECCENTRICITY":0.00099339,"INCLINATION":97.5443,"RA_OF_ASC_NODE":203.927,"ARG_OF_PERICENTER":232.2702,"MEAN_ANOMALY":127.7637,"EPHEMERIS_TYPE":0,"CLASSIFICATION_TYPE":"U","NORAD_CAT_ID":59124,"ELEMENT_SET_NO":999,"REV_AT_EPOCH":11182,"BSTAR":0.00025731354,"MEAN_MOTION_DOT":6.907e-5,"MEAN_MOTION_DDOT":0}]
